AQUA                    
1 27424U 02022A   26182.90238214  .00000822  00000+0  17321-3 0  9991
2 27424  98.4284 152.4798 0000699  79.7486 333.3720 14.62180459285429
ARIRANG-2 (KOMPSAT-2)   
1 29268U 06031A   26182.99948847  .00000569  00000+0  11521-3 0  9996
2 29268  97.8302   6.7291 0015348  31.3151 128.1936 14.64670023 63640
ARIRANG-3 (KOMPSAT-3)   
1 38338U 12025B   26182.95051622  .00000486  00000+0  10577-3 0  9994
2 38338  98.1178 140.1562 0006760  72.5765 287.6175 14.62219363753504
ARIRANG-5 (KOMPSAT-5)   
1 39227U 13042A   26182.93100749  .00002394  00000+0  17511-3 0  9990
2 39227  97.6194   9.4230 0005119  86.9643 273.2169 15.04540352706070
ALOS-2                  
1 39766U 14029A   26181.86863941  .00000732  00000+0  10488-3 0  9995
2 39766  97.9232 278.8362 0001598  87.5110 272.6284 14.79474729653601
ASNARO                  
1 40298U 14070A   26182.91007903  .00008044  00000+0  38008-3 0  9990
2 40298  97.3452 258.6271 0006646 122.9082 237.2794 15.19650601646242
ALSAT-1B                
1 41785U 16059C   26182.98818648  .00000401  00000+0  70971-4 0  9999
2 41785  97.7745 191.1129 0009345 169.3963 190.7444 14.72285691522753
ARKTIKA-M 1             
1 47719U 21016A   26180.95192977 -.00000281  00000+0  00000+0 0  9994
2 47719  63.2520  55.7907 7292817 269.9910  14.5481  2.00617895 39040
ARKTIKA-M 2             
1 58584U 23198A   26180.72239164  .00000148  00000+0  00000+0 0  9995
2 58584  63.2199 152.9641 6905877 267.3845  18.7575  2.00610643 18573
ALOS-4 (DAICHI-4)       
1 60182U 24123A   26182.90248516  .00001573  00000+0  21751-3 0  9997
2 60182  97.9219 279.8674 0001628  97.5098 262.6298 14.79472530108055
